{
  "type": "FeatureCollection",
  "features": [
    {
      "type": "Feature",
      "properties": {
        "norad_id": 44333,
        "name": "AT&T T-16",
        "group": "intelsat",
        "lat": -0.02180957232991968,
        "lon": -93.93008869837034,
        "alt_km": 35787.662596782626,
        "timestamp": "2025-12-14T18:52:55.166145+00:00",
        "meta_object_name": "AT&T T-16",
        "meta_object_id": "2019-034A",
        "meta_epoch": "2025-12-13T19:48:51.688800",
        "meta_mean_motion": 1.00271971,
        "meta_eccentricity": 8.71e-05,
        "meta_inclination": 0.0274,
        "meta_ra_of_asc_node": 73.1055,
        "meta_arg_of_pericenter": 76.9165,
        "meta_mean_anomaly": 129.0863,
        "meta_ephemeris_type": 0,
        "meta_classification_type": "U",
        "meta_norad_cat_id": 44333,
        "meta_element_set_no": 999,
        "meta_rev_at_epoch": 2377,
        "meta_bstar": 0,
        "meta_mean_motion_dot": -9.9e-07,
        "meta_mean_motion_ddot": 0,
        "tle_line1": "1 44333U 19034A   25347.82559825 -.00000099  00000+0  00000+0 0  9996",
        "tle_line2": "2 44333   0.0274  73.1055 0000871  76.9165 129.0863  1.00271971 23779"
      },
      "geometry": {
        "type": "Point",
        "coordinates": [
          -93.93008869837034,
          -0.02180957232991968
        ]
      }
    },
    {
      "type": "Feature",
      "properties": {
        "norad_id": 44476,
        "name": "INTELSAT 39 (IS-39)",
        "group": "intelsat",
        "lat": 0.03259153109729469,
        "lon": 68.85369356526171,
        "alt_km": 35783.55285554156,
        "timestamp": "2025-12-14T18:52:55.166157+00:00",
        "meta_object_name": "INTELSAT 39 (IS-39)",
        "meta_object_id": "2019-049B",
        "meta_epoch": "2025-12-13T22:18:17.180064",
        "meta_mean_motion": 1.0027162,
        "meta_eccentricity": 9.87e-05,
        "meta_inclination": 0.0117,
        "meta_ra_of_asc_node": 343.6301,
        "meta_arg_of_pericenter": 138.2749,
        "meta_mean_anomaly": 357.4644,
        "meta_ephemeris_type": 0,
        "meta_classification_type": "U",
        "meta_norad_cat_id": 44476,
        "meta_element_set_no": 999,
        "meta_rev_at_epoch": 2327,
        "meta_bstar": 0,
        "meta_mean_motion_dot": 5e-07,
        "meta_mean_motion_ddot": 0,
        "tle_line1": "1 44476U 19049B   25347.92936551  .00000050  00000+0  00000+0 0  9992",
        "tle_line2": "2 44476   0.0117 343.6301 0000987 138.2749 357.4644  1.00271620 23270"
      },
      "geometry": {
        "type": "Point",
        "coordinates": [
          68.85369356526171,
          0.03259153109729469
        ]
      }
    },
    {
      "type": "Feature",
      "properties": {
        "norad_id": 46114,
        "name": "GALAXY 30 (G-30)",
        "group": "intelsat",
        "lat": -0.03890459648281604,
        "lon": -118.07426372113372,
        "alt_km": 35777.04946938059,
        "timestamp": "2025-12-14T18:52:55.166169+00:00",
        "meta_object_name": "GALAXY 30 (G-30)",
        "meta_object_id": "2020-056C",
        "meta_epoch": "2025-12-13T16:16:42.007872",
        "meta_mean_motion": 1.00273279,
        "meta_eccentricity": 0.00021703,
        "meta_inclination": 0.0186,
        "meta_ra_of_asc_node": 344.0931,
        "meta_arg_of_pericenter": 279.4868,
        "meta_mean_anomaly": 298.2109,
        "meta_ephemeris_type": 0,
        "meta_classification_type": "U",
        "meta_norad_cat_id": 46114,
        "meta_element_set_no": 999,
        "meta_rev_at_epoch": 1943,
        "meta_bstar": 0,
        "meta_mean_motion_dot": 5.2e-07,
        "meta_mean_motion_ddot": 0,
        "tle_line1": "1 46114U 20056C   25347.67826398  .00000052  00000+0  00000+0 0  9994",
        "tle_line2": "2 46114   0.0186 344.0931 0002170 279.4868 298.2109  1.00273279 19430"
      },
      "geometry": {
        "type": "Point",
        "coordinates": [
          -118.07426372113372,
          -0.03890459648281604
        ]
      }
    },
    {
      "type": "Feature",
      "properties": {
        "norad_id": 54026,
        "name": "GALAXY 33 (G-33)",
        "group": "intelsat",
        "lat": -0.0300539273208536,
        "lon": -126.08572809145939,
        "alt_km": 35778.47538013446,
        "timestamp": "2025-12-14T18:52:55.166182+00:00",
        "meta_object_name": "GALAXY 33 (G-33)",
        "meta_object_id": "2022-128A",
        "meta_epoch": "2025-12-13T16:14:27.223008",
        "meta_mean_motion": 1.0027218,
        "meta_eccentricity": 0.0001894,
        "meta_inclination": 0.0117,
        "meta_ra_of_asc_node": 351.7479,
        "meta_arg_of_pericenter": 264.8919,
        "meta_mean_anomaly": 296.5798,
        "meta_ephemeris_type": 0,
        "meta_classification_type": "U",
        "meta_norad_cat_id": 54026,
        "meta_element_set_no": 999,
        "meta_rev_at_epoch": 1188,
        "meta_bstar": 0,
        "meta_mean_motion_dot": 9.4e-07,
        "meta_mean_motion_ddot": 0,
        "tle_line1": "1 54026U 22128A   25347.67670397  .00000094  00000+0  00000+0 0  9999",
        "tle_line2": "2 54026   0.0117 351.7479 0001894 264.8919 296.5798  1.00272180 11880"
      },
      "geometry": {
        "type": "Point",
        "coordinates": [
          -126.08572809145939,
          -0.0300539273208536
        ]
      }
    },
    {
      "type": "Feature",
      "properties": {
        "norad_id": 54027,
        "name": "GALAXY 34 (G-34)",
        "group": "intelsat",
        "lat": -0.03886647061996171,
        "lon": -122.02142746453407,
        "alt_km": 35780.838475659526,
        "timestamp": "2025-12-14T18:52:55.166194+00:00",
        "meta_object_name": "GALAXY 34 (G-34)",
        "meta_object_id": "2022-128B",
        "meta_epoch": "2025-12-13T16:15:34.615872",
        "meta_mean_motion": 1.0027043,
        "meta_eccentricity": 0.0001377,
        "meta_inclination": 0.0218,
        "meta_ra_of_asc_node": 357.2805,
        "meta_arg_of_pericenter": 258.9039,
        "meta_mean_anomaly": 301.3847,
        "meta_ephemeris_type": 0,
        "meta_classification_type": "U",
        "meta_norad_cat_id": 54027,
        "meta_element_set_no": 999,
        "meta_rev_at_epoch": 1205,
        "meta_bstar": 0,
        "meta_mean_motion_dot": 0,
        "meta_mean_motion_ddot": 0,
        "tle_line1": "1 54027U 22128B   25347.67748398  .00000000  00000+0  00000+0 0  9994",
        "tle_line2": "2 54027   0.0218 357.2805 0001377 258.9039 301.3847  1.00270430 12056"
      },
      "geometry": {
        "type": "Point",
        "coordinates": [
          -122.02142746453407,
          -0.03886647061996171
        ]
      }
    },
    {
      "type": "Feature",
      "properties": {
        "norad_id": 54243,
        "name": "GALAXY 31 (G-31)",
        "group": "intelsat",
        "lat": -0.03323478264010918,
        "lon": -114.1005753093514,
        "alt_km": 35780.90605872522,
        "timestamp": "2025-12-14T18:52:55.166205+00:00",
        "meta_object_name": "GALAXY 31 (G-31)",
        "meta_object_id": "2022-153A",
        "meta_epoch": "2025-12-13T21:26:07.177632",
        "meta_mean_motion": 1.0027071,
        "meta_eccentricity": 0.00015139,
        "meta_inclination": 0.0123,
        "meta_ra_of_asc_node": 337.5951,
        "meta_arg_of_pericenter": 300.3689,
        "meta_mean_anomaly": 5.3769,
        "meta_ephemeris_type": 0,
        "meta_classification_type": "U",
        "meta_norad_cat_id": 54243,
        "meta_element_set_no": 999,
        "meta_rev_at_epoch": 527,
        "meta_bstar": 0,
        "meta_mean_motion_dot": 0,
        "meta_mean_motion_ddot": 0,
        "tle_line1": "1 54243U 22153A   25347.89313863  .00000000  00000+0  00000+0 0  9991",
        "tle_line2": "2 54243   0.0123 337.5951 0001513 300.3689   5.3769  1.00270710  5270"
      },
      "geometry": {
        "type": "Point",
        "coordinates": [
          -114.1005753093514,
          -0.03323478264010918
        ]
      }
    },
    {
      "type": "Feature",
      "properties": {
        "norad_id": 54244,
        "name": "GALAXY 32 (G-32)",
        "group": "intelsat",
        "lat": -0.029022340494515738,
        "lon": -84.09611971327402,
        "alt_km": 35777.37093888139,
        "timestamp": "2025-12-14T18:52:55.166217+00:00",
        "meta_object_name": "GALAXY 32 (G-32)",
        "meta_object_id": "2022-153B",
        "meta_epoch": "2025-12-12T13:02:51.144864",
        "meta_mean_motion": 1.00272099,
        "meta_eccentricity": 0.00025848,
        "meta_inclination": 0.0111,
        "meta_ra_of_asc_node": 11.8146,
        "meta_arg_of_pericenter": 300.84,
        "meta_mean_anomaly": 233.5475,
        "meta_ephemeris_type": 0,
        "meta_classification_type": "U",
        "meta_norad_cat_id": 54244,
        "meta_element_set_no": 999,
        "meta_rev_at_epoch": 1127,
        "meta_bstar": 0,
        "meta_mean_motion_dot": -1.63e-06,
        "meta_mean_motion_ddot": 0,
        "tle_line1": "1 54244U 22153B   25346.54364751 -.00000163  00000+0  00000+0 0  9996",
        "tle_line2": "2 54244   0.0111  11.8146 0002584 300.8400 233.5475  1.00272099 11279"
      },
      "geometry": {
        "type": "Point",
        "coordinates": [
          -84.09611971327402,
          -0.029022340494515738
        ]
      }
    }
  ]
}